MIDORI II (ADEOS-II)    
1 27597U 02056A   17345.90139187  .00000066  00000-0  44199-4 0  9994
2 27597  98.3950 308.1325 0001600 122.4895 237.6441 14.27323893780774
